AIST-1 (RS-41)          
1 39492U 13078C   24315.89399759  .00006760  00000+0  64671-3 0  9995
2 39492  82.4141 114.7474 0019057  70.5173 289.8103 14.92946139588114
KAZEOSAT 1              
1 39731U 14024A   24315.89844439  .00001304  00000+0  41095-3 0  9997
2 39731  98.3832  29.8502 0001268  79.3383 280.7950 14.41982566554498
COSMOS 2496             
1 39761U 14028A   24315.89987659  .00000049  00000+0  28403-3 0  9999
2 39761  82.4412 114.0890 0019148 270.2827  89.6059 12.42878406475053
COSMOS 2497             
1 39762U 14028B   24315.87201150  .00000065  00000+0  39963-3 0  9994
2 39762  82.4458 115.5610 0019787 264.3044  95.5779 12.42893629475053
COSMOS 2498             
1 39763U 14028C   24315.89294882  .00000068  00000+0  41894-3 0  9990
2 39763  82.4421 114.2861 0020414 264.4083  95.4668 12.42951822475080
COSMOS 2499 (RS-47)     
1 39765U 14028E   24315.84710565  .00000074  00000+0  24557-3 0  9992
2 39765  82.4465 286.0423 0230543 291.3487  66.3151 12.82882739490226
HODOYOSHI-4             
1 40011U 14033B   24315.88217301  .00005643  00000+0  65645-3 0  9998
2 40011  97.5644 158.3230 0026247  76.6920 283.7220 14.85426017562124
UNISAT-6                
1 40012U 14033C   24315.42384232  .00014382  00000+0  17617-2 0  9992
2 40012  97.7178 112.2536 0050237 186.5954 173.4605 14.82360001559485
DEIMOS-2                
1 40013U 14033D   24315.90983222  .00007917  00000+0  81860-3 0  9998
2 40013  97.6585 198.1149 0002533  88.0013 272.1495 14.90362316563601
BUGSAT-1 (TITA)         
1 40014U 14033E   24315.90036620  .00016076  00000+0  10556-2 0  9999
2 40014  98.1072   5.0882 0033444   2.7960 357.3447 15.07259689567714
SAUDISAT 4              
1 40016U 14033G   24315.88507937  .00004127  00000+0  56957-3 0  9992
2 40016  97.6807 114.6478 0046359 170.1839 190.0289 14.77923645559867
APRIZESAT 9             
1 40018U 14033J   24315.78765098  .00003336  00000+0  51307-3 0  9992
2 40018  97.8240  95.7542 0066739 276.1990  83.1618 14.72665723557649
BRITE-CA1 (TORONTO)     
1 40020U 14033L   24315.78802681  .00004060  00000+0  64428-3 0  9998
2 40020  97.8974  88.0285 0081324 344.7291  15.1462 14.70484422556406
DUCHIFAT-1              
1 40021U 14033M   24315.88710765  .00042989  00000+0  22670-2 0  9995
2 40021  98.1002 308.1087 0009884 337.5903  22.4894 15.15385946566277
NANOSATC-BR1            
1 40024U 14033Q   24315.39478757  .00035066  00000+0  21820-2 0  9990
2 40024  98.0797 294.2719 0007923  53.9421 306.2539 15.09493836565250
QB50P1                  
1 40025U 14033R   24315.74828524  .00021185  00000+0  15187-2 0  9997
2 40025  98.0598 281.9048 0013959  54.0400 306.2117 15.04309877564878
DTUSAT-2                
1 40030U 14033W   24315.62410577  .00020662  00000+0  15465-2 0  9993
2 40030  98.0302 272.4802 0012428  58.5691 301.6746 15.02703830564659
FLOCK 1C-4              
1 40031U 14033X   24314.68545876  .00112791  00000+0  54817-2 0  9999
2 40031  98.0861 299.4123 0007186  23.6786 336.4776 15.17904813565197
QB50P2                  
1 40032U 14033Y   24315.72183958  .00020292  00000+0  15178-2 0  9996
2 40032  98.0162 272.5191 0009731   6.3283 353.8062 15.02756458564641
PERSEUS-M1              
1 40039U 14033AF  24315.22507482  .00009863  00000+0  97902-3 0  9997
2 40039  97.9128 242.3300 0014476  74.6896 285.5921 14.91872397563445
POLYITAN-1              
1 40042U 14033AJ  24315.67173757  .00031966  00000+0  20119-2 0  9998
2 40042  98.0873 286.7048 0012313  13.5065 346.6489 15.09063031564870
TIGRISAT                
1 40043U 14033AK  24315.40579935  .00011483  00000+0  14577-2 0  9991
2 40043  97.7103 112.1336 0053296 185.7642 174.2965 14.80821284559084
AISAT                   
1 40054U 14034B   24315.88991388  .00024726  00000+0  23352-2 0  9991
2 40054  98.3142 179.2737 0010019  11.0717 349.0720 14.93674496559676
CANX-4                  
1 40055U 14034C   24315.50723356  .00005996  00000+0  81512-3 0  9990
2 40055  98.3812 156.3809 0014502  83.5865 276.6996 14.79118740558179
CANX-5                  
1 40056U 14034D   24315.51141521  .00006028  00000+0  81924-3 0  9994
2 40056  98.3814 156.3960 0014496  83.7317 276.5543 14.79129616558201
VELOX-I                 
1 40057U 14034E   24315.90412659  .00017089  00000+0  18080-2 0  9992
2 40057  98.3194 178.2965 0009870  33.4181 326.7656 14.89216422559513
GONETS-M 10             
1 40063U 14036C   24315.89159295  .00000108  00000+0  71023-3 0  9994
2 40063  82.5077 309.9501 0021365 337.9957  22.0203 12.42922350469784
METEOR-M 2              
1 40069U 14037A   24315.90760463  .00000815  00000+0  39400-3 0  9996
2 40069  98.4497 303.6907 0004710 298.7830  61.2875 14.21132760536469
DX1                     
1 40071U 14037C   24315.92680925  .00008526  00000+0  97100-3 0  9993
2 40071  98.3307 235.1687 0008270  19.8287 340.3247 14.86419505559340
UKUBE-1                 
1 40074U 14037F   24315.76548565  .00023745  00000+0  19722-2 0  9994
2 40074  98.3502 255.2069 0002577 334.8595  25.2500 14.98748224560690
GAOFEN-2                
1 40118U 14049A   24315.93577380  .00004937  00000+0  65115-3 0  9992
2 40118  98.0934   7.2066 0004446 310.5014  49.5810 14.80531037552935
BRITE-PL2 (HEWELIUSZ)   
1 40119U 14049B   24315.52045623  .00009336  00000+0  95657-3 0  9990
2 40119  97.8864  54.7108 0014201 240.1053 119.8754 14.90618353554365
HODOYOSHI-1             
1 40299U 14070B   24315.92491027  .00114787  00000+0  11457-2 0  9992
2 40299  97.1170  15.5086 0005033 209.1117 150.9864 15.65254466557901
CBERS 4                 
1 40336U 14079A   24315.91244378  .00000827  00000+0  30232-3 0  9999
2 40336  98.3844  20.2934 0000348 126.3148 233.8071 14.35489875520278
SMAP                    
1 40376U 15003A   24315.89954734  .00002878  00000+0  56476-3 0  9998
2 40376  98.1302 320.2313 0001513  99.9125 260.2248 14.63469632522315
GONETS-M 11             
1 40552U 15020A   24315.88418258  .00000032  00000+0  15833-3 0  9990
2 40552  82.4899  34.4140 0016545 191.7661 168.3034 12.42881181436279
GONETS-M 12             
1 40553U 15020B   24315.93755435  .00000036  00000+0  19133-3 0  9999
2 40553  82.4933  35.3383 0015462 176.5842 183.5346 12.42891259436279
GONETS-M 13             
1 40554U 15020C   24315.91102108  .00000028  00000+0  13359-3 0  9996
2 40554  82.4894  34.1577 0014194 161.8880 198.2708 12.42881384436248
DMC3-FM1                
1 40715U 15032A   24315.88820639  .00003380  00000+0  40829-3 0  9996
2 40715  97.7250 190.3668 0005989 157.2545 202.8936 14.84374366503332
DMC3-FM2                
1 40716U 15032B   24315.91046138  .00003067  00000+0  37114-3 0  9990
2 40716  97.7305 191.5564 0007668 165.1665 194.9776 14.84370364503336
DMC3-FM3                
1 40717U 15032C   24315.94416490  .00003636  00000+0  43969-3 0  9993
2 40717  97.7355 192.9346 0009180 164.1613 195.9891 14.84275780503344
CARBONITE 1 (CBNT-1)    
1 40718U 15032D   24315.86056662  .00006897  00000+0  91486-3 0  9995
2 40718  97.6470 148.9712 0016417  48.6276 311.6345 14.80036460502944
DEORBITSAIL             
1 40719U 15032E   24315.85608613  .00020312  00000+0  20441-2 0  9994
2 40719  97.6650 174.7305 0013542  17.5827 342.5857 14.91150002503913
2015-049A               
1 40899U 15049A   24315.90766309  .00103909  00000+0  14371-2 0  9993
2 40899  97.4526 336.3439 0007623 125.3551 234.8417 15.56743222507217
KAITUO 1A               
1 40904U 15049F   24315.93630039  .03655184  24876-5  19886-2 0  9992
2 40904  97.4439 341.2175 0003653 196.0693 164.0480 16.19722675507370
2015-049G               
1 40905U 15049G   24315.89523141  .00031107  00000+0  91909-3 0  9997
2 40905  97.5192 327.0860 0010371 169.9775 190.1677 15.34839535506160
XW-2C                   
1 40906U 15049H   24315.91319682  .00144645  00000+0  15939-2 0  9994
2 40906  97.4628 338.1430 0007419 117.3094 242.8921 15.62610901507208
XW-2D                   
1 40907U 15049J   24315.17546693  .01431903  13211-2  19065-2 0  9999
2 40907  97.4402 343.1167 0002694 152.4035 207.7390 16.07004997507535
LILACSAT-2              
1 40908U 15049K   24315.89858181  .00025998  00000+0  85374-3 0  9995
2 40908  97.5219 326.1353 0010749 181.6210 178.4998 15.31503845505909
XW-2B                   
1 40911U 15049N   24315.12658005  .00813854  29790-3  19207-2 0  9996
2 40911  97.4429 342.6733 0003612 133.6356 226.5220 15.96851976507366
COSMOS 2507             
1 40920U 15050A   24315.88290367  .00000061  00000+0  37236-3 0  9994
2 40920  82.4906  82.8036 0009895 177.4890 182.6241 12.42899863414397
COSMOS 2508             
1 40921U 15050B   24315.91185993  .00000053  00000+0  31286-3 0  9997
2 40921  82.4861  81.5099 0013827 212.6329 147.3898 12.42884441414383
COSMOS 2509             
1 40922U 15050C   24315.93759050  .00000047  00000+0  26769-3 0  9994
2 40922  82.4862  81.5772 0015975 226.8962 133.0782 12.42891250414424
LAPAN-A2                
1 40931U 15052B   24314.22189025  .00002931  00000+0  30579-3 0  9994
2 40931   6.0018  36.0170 0012926 336.1170  23.8358 14.78329465492959
LQSAT                   
1 40958U 15057A   24315.93109783  .00003663  00000+0  54502-3 0  9995
2 40958  97.6626 328.3745 0017699  10.4714 349.6861 14.75406392489262
LINGQIAO VIDEO A        
1 40959U 15057B   24315.89849858  .00003649  00000+0  53808-3 0  9997
2 40959  97.6607 329.5683 0017563   9.8307 350.3244 14.75801867489323
LINGQIAO VIDEO B        
1 40960U 15057C   24315.91022925  .00003420  00000+0  50305-3 0  9996
2 40960  97.6610 330.7838 0017674   9.9957 350.1601 14.75945325489367
JILIN-1                 
1 40961U 15057D   24315.92406670  .00003697  00000+0  53431-3 0  9990
2 40961  97.6623 333.8434 0017465   5.9763 354.1653 14.76649425489484
FOX-1A (AO-85)          
1 40967U 15058D   24315.63677840  .00013261  00000+0  11489-2 0  9998
2 40967  64.7765 285.7057 0186973 260.1135  97.8823 14.84824017 26711
